[{"OBJECT_NAME":"STARLINK-33946","OBJECT_ID":"2025-102N","EPOCH":"2026-03-09T13:29:01.639392","MEAN_MOTION":14.98331113,"ECCENTRICITY":0.0003559,"INCLINATION":70.0015,"RA_OF_ASC_NODE":114.7583,"ARG_OF_PERICENTER":266.8862,"MEAN_ANOMALY":93.189,"EPHEMERIS_TYPE":0,"CLASSIFICATION_TYPE":"U","NORAD_CAT_ID":64034,"ELEMENT_SET_NO":999,"REV_AT_EPOCH":4598,"BSTAR":9.762e-5,"MEAN_MOTION_DOT":1.072e-5,"MEAN_MOTION_DDOT":0},{"OBJECT_NAME":"FENGYUN 1C DEB","OBJECT_ID":"1999-025CWT","EPOCH":"2026-03-07T12:20:18.865536","MEAN_MOTION":14.78969829,"ECCENTRICITY":0.00944747,"INCLINATION":98.6527,"RA_OF_ASC_NODE":273.8426,"ARG_OF_PERICENTER":72.7865,"MEAN_ANOMALY":288.3658,"EPHEMERIS_TYPE":0,"CLASSIFICATION_TYPE":"U","NORAD_CAT_ID":32245,"ELEMENT_SET_NO":999,"REV_AT_EPOCH":67358,"BSTAR":0.0016597334,"MEAN_MOTION_DOT":0.00013167,"MEAN_MOTION_DDOT":0}]
